NORAD_CAT_ID,OBJECT_NAME,OBJECT_TYPE,EPOCH,MEAN_MOTION,ECCENTRICITY,INCLINATION,RA_OF_ASC_NODE,ARG_OF_PERICENTER,MEAN_ANOMALY,BSTAR,MEAN_MOTION_DOT,MEAN_MOTION_DDOT,TLE_LINE0,TLE_LINE1,TLE_LINE2,SEMIMAJOR_AXIS,PERIOD,APOGEE,PERIGEE,DECAYED
50204.0,STARLINK-3254,PAYLOAD,2022-08-30 18:01:30,15.08840244,0.0001984,53.2163,256.4237,44.8047,315.3105,-2.1542e-05,-6.31e-06,0.0,0 STARLINK-3254,1 50204U 21125BA  22242.75104445 -.00000631  00000-0 -21542-4 0  9994,2 50204  53.2163 256.4237 0001984  44.8047 315.3105 15.08840244 42506,6917.88,95.438,541.117,538.372,0.0
50204.0,STARLINK-3254,PAYLOAD,2022-08-31 09:55:21,15.08836081,0.0002059,53.2167,253.4506,47.0088,313.1076,9.5816e-05,1.237e-05,0.0,0 STARLINK-3254,1 50204U 21125BA  22243.41344479  .00001237  00000-0  95816-4 0  9997,2 50204  53.2167 253.4506 0002059  47.0088 313.1076 15.08836081 42608,6917.892,95.438,541.182,538.3330000000002,0.0
50204.0,STARLINK-3254,PAYLOAD,2022-09-01 08:10:45,15.08844036,0.0002118,53.2167,249.2874,48.4487,311.6686,0.00010657,1.408e-05,0.0,0 STARLINK-3254,1 50204U 21125BA  22244.34080062  .00001408  00000-0  10657-3 0  9994,2 50204  53.2167 249.2874 0002118  48.4487 311.6686 15.08844036 42747,6917.868,95.437,541.198,538.268,0.0
50204.0,STARLINK-3254,PAYLOAD,2022-09-01 17:43:05,15.08833832,0.000221,53.2164,247.5032,50.9147,309.2042,7.5315e-06,-1.68e-06,0.0,0 STARLINK-3254,1 50204U 21125BA  22244.73825249 -.00000168  00000-0  75315-5 0  9998,2 50204  53.2164 247.5032 0002210  50.9147 309.2042 15.08833832 39674,6917.899,95.438,541.293,538.235,0.0
50204.0,STARLINK-3254,PAYLOAD,2022-09-02 06:26:10,15.08836132,0.0002130999999999,53.2167,245.1241,49.8926,310.2253,-7.2494e-07,-3e-06,0.0,0 STARLINK-3254,1 50204U 21125BA  22245.26817238 -.00000300  00000-0 -72494-6 0  9991,2 50204  53.2167 245.1241 0002131  49.8926 310.2253 15.08836132 42886,6917.892,95.438,541.231,538.283,0.0
50204.0,STARLINK-3254,PAYLOAD,2022-09-03 04:41:33,15.08841551,0.0002171999999999,53.2168,240.9614,49.9028,310.2155,2.1126e-05,4.8e-07,0.0,0 STARLINK-3254,1 50204U 21125BA  22246.19553060  .00000048  00000-0  21126-4 0  9995,2 50204  53.2168 240.9614 0002172  49.9028 310.2155 15.08841551 39892,6917.876,95.437,541.243,538.238,0.0
50204.0,STARLINK-3254,PAYLOAD,2022-09-03 09:27:43,15.08843085,0.000215,53.2169,240.0689,51.4404,308.6781,3.2963e-05,2.36e-06,0.0,0 STARLINK-3254,1 50204U 21125BA  22246.39424941  .00000236  00000-0  32963-4 0  9992,2 50204  53.2169 240.0689 0002150  51.4404 308.6781 15.08843085 43051,6917.871,95.437,541.2230000000002,538.249,0.0
50204.0,STARLINK-3254,PAYLOAD,2022-09-04 09:18:29,15.08845306,0.0002229,53.2168,235.6089,51.6601,308.4591,0.00015806,2.229e-05,0.0,0 STARLINK-3254,1 50204U 21125BA  22247.38784502  .00002229  00000-0  15806-3 0  9994,2 50204  53.2168 235.6089 0002229  51.6601 308.4591 15.08845306 40076,6917.864000000001,95.437,541.271,538.187,0.0
50204.0,STARLINK-3254,PAYLOAD,2022-09-05 04:23:07,15.08846308,0.0002184,53.2162,232.0388,58.7708,301.3498,0.00010144,1.327e-05,0.0,0 STARLINK-3254,1 50204U 21125BA  22248.18272711  .00001327  00000-0  10144-3 0  9995,2 50204  53.2162 232.0388 0002184  58.7708 301.3498 15.08846308 40193,6917.861,95.437,541.237,538.215,0.0
50204.0,STARLINK-3254,PAYLOAD,2022-09-05 07:33:53,15.08848241,0.0002278999999999,53.2159,231.4446,50.2616,309.8576,0.00012778,1.746e-05,0.0,0 STARLINK-3254,1 50204U 21125BA  22248.31520591  .00001746  00000-0  12778-3 0  9992,2 50204  53.2159 231.4446 0002279  50.2616 309.8576 15.08848241 43345,6917.855,95.437,541.297,538.144,0.0
50204.0,STARLINK-3254,PAYLOAD,2022-09-06 09:00:04,15.08832387,0.000231,53.2176,226.6878,51.9058,308.2142,-9.6075e-05,-1.817e-05,0.0,0 STARLINK-3254,1 50204U 21125BA  22249.37505541 -.00001817  00000-0 -96075-4 0  9991,2 50204  53.2176 226.6878 0002310  51.9058 308.2142 15.08832387 43507,6917.904,95.438,541.367,538.1709999999998,0.0
50204.0,STARLINK-3254,PAYLOAD,2022-09-06 15:21:37,15.08830325,0.0002195999999999,53.2171,225.499,52.4632,307.6559,-0.0001052,-1.962e-05,0.0,0 STARLINK-3254,1 50204U 21125BA  22249.64001710 -.00001962  00000-0 -10520-3 0  9991,2 50204  53.2171 225.4990 0002196  52.4632 307.6559 15.08830325 43549,6917.91,95.438,541.294,538.256,0.0
50204.0,STARLINK-3254,PAYLOAD,2022-09-07 07:15:28,15.08836846,0.0002195999999999,53.2171,222.5251,49.3965,310.7218,-8.7181e-07,-3.02e-06,0.0,0 STARLINK-3254,1 50204U 21125BA  22250.30241330 -.00000302  00000-0 -87181-6 0  9997,2 50204  53.2171 222.5251 0002196  49.3965 310.7218 15.08836846 43643,6917.89,95.438,541.274,538.236,0.0
50204.0,STARLINK-3254,PAYLOAD,2022-09-07 21:33:55,15.08876814,0.0002116,53.217,219.8486,41.4774,318.6378,-0.00042534,-7.058e-05,0.0,0 STARLINK-3254,1 50204U 21125BA  22250.89855810 -.00007058  00000-0 -42534-3 0  9990,2 50204  53.2170 219.8486 0002116  41.4774 318.6378 15.08876814 40600,6917.768,95.435,541.097,538.169,0.0
50204.0,STARLINK-3254,PAYLOAD,2022-09-07 23:09:19,15.08835645,0.0002009999999999,53.2168,219.5514,47.9899,312.1264,0.00017075,2.43e-05,0.0,0 STARLINK-3254,1 50204U 21125BA  22250.96480970  .00002430  00000-0  17075-3 0  9998,2 50204  53.2168 219.5514 0002010  47.9899 312.1264 15.08835645 40619,6917.894,95.438,541.149,538.368,0.0
50204.0,STARLINK-3254,PAYLOAD,2022-09-08 07:06:15,15.08841595,0.0002015,53.2163,218.0655,54.1116,306.0063,5.209e-05,5.41e-06,0.0,0 STARLINK-3254,1 50204U 21125BA  22251.29600877  .00000541  00000-0  52090-4 0  9993,2 50204  53.2163 218.0655 0002015  54.1116 306.0063 15.08841595 43793,6917.876,95.437,541.134,538.347,0.0
50204.0,STARLINK-3254,PAYLOAD,2022-09-08 15:03:11,15.08830978,0.0002099,53.2169,216.5777,49.466,310.6515,0.0001306,1.7899999999999998e-05,0.0,0 STARLINK-3254,1 50204U 21125BA  22251.62721582  .00001790  00000-0  13060-3 0  9997,2 50204  53.2169 216.5777 0002099  49.4660 310.6515 15.08830978 40715,6917.908,95.438,541.225,538.321,0.0
50204.0,STARLINK-3254,PAYLOAD,2022-09-09 06:57:02,15.08846934,0.0002051,53.2165,213.6037,51.1383,308.9792,0.00016822,2.391e-05,0.0,0 STARLINK-3254,1 50204U 21125BA  22252.28960733  .00002391  00000-0  16822-3 0  9990,2 50204  53.2165 213.6037 0002051  51.1383 308.9792 15.08846934 43942,6917.859,95.437,541.143,538.305,0.0
50204.0,STARLINK-3254,PAYLOAD,2022-09-10 03:37:03,15.08843519,0.0002115,53.216,209.7372,54.3369,305.7819,3.3375e-05,2.43e-06,0.0,0 STARLINK-3254,1 50204U 21125BA  22253.15072947  .00000243  00000-0  33375-4 0  9995,2 50204  53.2160 209.7372 0002115  54.3369 305.7819 15.08843519 40943,6917.87,95.437,541.198,538.2719999999998,0.0
50204.0,STARLINK-3254,PAYLOAD,2022-09-10 06:47:49,15.08846172,0.0002139,53.2162,209.1419,60.0204,300.1,7.3119e-05,8.76e-06,0.0,0 STARLINK-3254,1 50204U 21125BA  22253.28320798  .00000876  00000-0  73119-4 0  9991,2 50204  53.2162 209.1419 0002139  60.0204 300.1000 15.08846172 44098,6917.861999999999,95.437,541.206,538.247,0.0
50204.0,STARLINK-3254,PAYLOAD,2022-09-11 06:38:36,15.08846307,0.0001986,53.2167,204.6862,50.0723,310.0444,7.9373e-05,9.75e-06,0.0,0 STARLINK-3254,1 50204U 21125BA  22254.27680806  .00000975  00000-0  79373-4 0  9998,2 50204  53.2167 204.6862 0001986  50.0723 310.0444 15.08846307 44248,6917.861,95.437,541.1,538.352,0.0
50204.0,STARLINK-3254,PAYLOAD,2022-09-11 20:57:04,15.08840931,0.0002156,53.217,202.0067,47.3103,312.807,5.8211e-05,6.38e-06,0.0,0 STARLINK-3254,1 50204U 21125BA  22254.87296992  .00000638  00000-0  58211-4 0  9997,2 50204  53.2170 202.0067 0002156  47.3103 312.8070 15.08840931 41207,6917.878000000002,95.437,541.234,538.251,0.0
50204.0,STARLINK-3254,PAYLOAD,2022-09-12 06:29:23,15.08845293,0.0002029,53.2162,200.224,50.6705,309.4467,8.0472e-05,9.93e-06,0.0,0 STARLINK-3254,1 50204U 21125BA  22255.27040790  .00000993  00000-0  80472-4 0  9993,2 50204  53.2162 200.2240 0002029  50.6705 309.4467 15.08845293 44396,6917.864000000001,95.437,541.133,538.326,0.0
50204.0,STARLINK-3254,PAYLOAD,2022-09-12 20:47:51,15.08838652,0.0002059,53.2162,197.5474,53.4503,306.6678,5.6875e-05,6.17e-06,0.0,0 STARLINK-3254,1 50204U 21125BA  22255.86657127  .00000617  00000-0  56875-4 0  9999,2 50204  53.2162 197.5474 0002059  53.4503 306.6678 15.08838652 44487,6917.885,95.438,541.174,538.325,0.0
50204.0,STARLINK-3254,PAYLOAD,2022-09-13 04:44:47,15.0884036,0.000196,53.2169,196.0601,48.5021,311.6139,4.0396e-05,3.55e-06,0.0,0 STARLINK-3254,1 50204U 21125BA  22256.19777079  .00000355  00000-0  40396-4 0  9995,2 50204  53.2169 196.0601 0001960  48.5021 311.6139 15.08840360 41406,6917.879,95.438,541.1,538.388,0.0
50204.0,STARLINK-3254,PAYLOAD,2022-09-13 12:41:42,15.08843984,0.0001915,53.2169,194.5734,50.9904,309.1258,9.5693e-05,1.235e-05,0.0,0 STARLINK-3254,1 50204U 21125BA  22256.52896907  .00001235  00000-0  95693-4 0  9992,2 50204  53.2169 194.5734 0001915  50.9904 309.1258 15.08843984 44584,6917.868,95.437,541.058,538.408,0.0
50204.0,STARLINK-3254,PAYLOAD,2022-09-13 20:38:38,15.08838436,0.0001931,53.2172,193.0869,49.9976,310.1185,-4.4927e-06,-3.6000000000000007e-06,0.0,0 STARLINK-3254,1 50204U 21125BA  22256.86017229 -.00000360  00000-0 -44927-5 0  9996,2 50204  53.2172 193.0869 0001931  49.9976 310.1185 15.08838436 44639,6917.885,95.438,541.086,538.414,0.0
50204.0,STARLINK-3254,PAYLOAD,2022-09-14 04:35:34,15.08833867,0.0001931,53.2173,191.6002,49.8457,310.2704,-6.3657e-05,-1.301e-05,0.0,0 STARLINK-3254,1 50204U 21125BA  22257.19137515 -.00001301  00000-0 -63657-4 0  9990,2 50204  53.2173 191.6002 0001931  49.8457 310.2704 15.08833867 41555,6917.899,95.438,541.1,538.428,0.0
50204.0,STARLINK-3254,PAYLOAD,2022-09-14 20:29:26,15.08830366,0.0001936,53.2172,188.6271,51.1382,308.9782,0.00016139,2.281e-05,0.0,0 STARLINK-3254,1 50204U 21125BA  22257.85377938  .00002281  00000-0  16139-3 0  9996,2 50204  53.2172 188.6271 0001936  51.1382 308.9782 15.08830366 44785,6917.91,95.438,541.114,538.436,0.0
